{
"type": "FeatureCollection",
"name": "candidatos",
"crs": { "type": "name", "properties": { "name": "urn:ogc:def:crs:OGC:1.3:CRS84" } },
"features": [
{ "type": "Feature", "properties": { "id": 1, "grupo": 1, "lat": 20.926008, "lon": -103.76267, "google_maps": "https://maps.google.com/?q=20.926008,-103.76267&t=k", "clase": "" }, "geometry": { "type": "Point", "coordinates": [ -103.76267006871187, 20.926007709298187 ] } },
{ "type": "Feature", "properties": { "id": 2, "grupo": 1, "lat": 20.916309, "lon": -103.796114, "google_maps": "https://maps.google.com/?q=20.916309,-103.796114&t=k", "clase": "" }, "geometry": { "type": "Point", "coordinates": [ -103.796113670731145, 20.916309168371502 ] } },
{ "type": "Feature", "properties": { "id": 3, "grupo": 1, "lat": 20.915647, "lon": -103.681991, "google_maps": "https://maps.google.com/?q=20.915647,-103.681991&t=k", "clase": "" }, "geometry": { "type": "Point", "coordinates": [ -103.681990924341363, 20.915647240432211 ] } },
{ "type": "Feature", "properties": { "id": 4, "grupo": 1, "lat": 20.891301, "lon": -103.6997, "google_maps": "https://maps.google.com/?q=20.891301,-103.6997&t=k", "clase": "" }, "geometry": { "type": "Point", "coordinates": [ -103.699699517386108, 20.891300836119704 ] } },
{ "type": "Feature", "properties": { "id": 5, "grupo": 2, "lat": 20.871884, "lon": -103.724569, "google_maps": "https://maps.google.com/?q=20.871884,-103.724569&t=k", "clase": "" }, "geometry": { "type": "Point", "coordinates": [ -103.724569413329434, 20.8718842202892 ] } },
{ "type": "Feature", "properties": { "id": 6, "grupo": 2, "lat": 20.882761, "lon": -103.804552, "google_maps": "https://maps.google.com/?q=20.882761,-103.804552&t=k", "clase": "" }, "geometry": { "type": "Point", "coordinates": [ -103.804552244393392, 20.882760928284032 ] } },
{ "type": "Feature", "properties": { "id": 7, "grupo": 2, "lat": 20.795236, "lon": -103.695337, "google_maps": "https://maps.google.com/?q=20.795236,-103.695337&t=k", "clase": "" }, "geometry": { "type": "Point", "coordinates": [ -103.695336778228224, 20.795235610817159 ] } },
{ "type": "Feature", "properties": { "id": 8, "grupo": 2, "lat": 20.816018, "lon": -103.707745, "google_maps": "https://maps.google.com/?q=20.816018,-103.707745&t=k", "clase": "" }, "geometry": { "type": "Point", "coordinates": [ -103.707744960280209, 20.816017651185696 ] } },
{ "type": "Feature", "properties": { "id": 9, "grupo": 3, "lat": 20.79745, "lon": -103.826843, "google_maps": "https://maps.google.com/?q=20.79745,-103.826843&t=k", "clase": "" }, "geometry": { "type": "Point", "coordinates": [ -103.826842687579258, 20.79744993965954 ] } },
{ "type": "Feature", "properties": { "id": 10, "grupo": 3, "lat": 20.805724, "lon": -103.847917, "google_maps": "https://maps.google.com/?q=20.805724,-103.847917&t=k", "clase": "" }, "geometry": { "type": "Point", "coordinates": [ -103.847916519101403, 20.805723770733888 ] } },
{ "type": "Feature", "properties": { "id": 11, "grupo": 3, "lat": 20.804372, "lon": -103.875694, "google_maps": "https://maps.google.com/?q=20.804372,-103.875694&t=k", "clase": "" }, "geometry": { "type": "Point", "coordinates": [ -103.875694131751118, 20.804372223882027 ] } },
{ "type": "Feature", "properties": { "id": 12, "grupo": 3, "lat": 20.797708, "lon": -103.811853, "google_maps": "https://maps.google.com/?q=20.797708,-103.811853&t=k", "clase": "" }, "geometry": { "type": "Point", "coordinates": [ -103.811852917029313, 20.797708169602149 ] } },
{ "type": "Feature", "properties": { "id": 13, "grupo": 4, "lat": 20.902592, "lon": -103.699506, "google_maps": "https://maps.google.com/?q=20.902592,-103.699506&t=k", "clase": "" }, "geometry": { "type": "Point", "coordinates": [ -103.699506095280952, 20.902591877994833 ] } },
{ "type": "Feature", "properties": { "id": 14, "grupo": 4, "lat": 20.898462, "lon": -103.679353, "google_maps": "https://maps.google.com/?q=20.898462,-103.679353&t=k", "clase": "" }, "geometry": { "type": "Point", "coordinates": [ -103.679353136009297, 20.898462365643731 ] } },
{ "type": "Feature", "properties": { "id": 15, "grupo": 5, "lat": 20.782592, "lon": -103.83397, "google_maps": "https://maps.google.com/?q=20.782592,-103.83397&t=k", "clase": "" }, "geometry": { "type": "Point", "coordinates": [ -103.833970359014316, 20.782591665508836 ] } },
{ "type": "Feature", "properties": { "id": 16, "grupo": 5, "lat": 20.821653, "lon": -103.893343, "google_maps": "https://maps.google.com/?q=20.821653,-103.893343&t=k", "clase": "" }, "geometry": { "type": "Point", "coordinates": [ -103.893343041203693, 20.821652691684463 ] } },
{ "type": "Feature", "properties": { "id": 17, "grupo": 5, "lat": 20.829, "lon": -103.87013, "google_maps": "https://maps.google.com/?q=20.829,-103.87013&t=k", "clase": "" }, "geometry": { "type": "Point", "coordinates": [ -103.870130018459719, 20.828999904632699 ] } },
{ "type": "Feature", "properties": { "id": 18, "grupo": 5, "lat": 20.811723, "lon": -103.866992, "google_maps": "https://maps.google.com/?q=20.811723,-103.866992&t=k", "clase": "" }, "geometry": { "type": "Point", "coordinates": [ -103.866991915082963, 20.811723273111586 ] } },
{ "type": "Feature", "properties": { "id": 19, "grupo": 6, "lat": 20.905734, "lon": -103.87494, "google_maps": "https://maps.google.com/?q=20.905734,-103.87494&t=k", "clase": "" }, "geometry": { "type": "Point", "coordinates": [ -103.874940471906044, 20.905734289861613 ] } },
{ "type": "Feature", "properties": { "id": 20, "grupo": 6, "lat": 20.85179, "lon": -103.743768, "google_maps": "https://maps.google.com/?q=20.85179,-103.743768&t=k", "clase": "" }, "geometry": { "type": "Point", "coordinates": [ -103.743768189822759, 20.851789752546704 ] } },
{ "type": "Feature", "properties": { "id": 21, "grupo": 6, "lat": 20.83915, "lon": -103.769724, "google_maps": "https://maps.google.com/?q=20.83915,-103.769724&t=k", "clase": "" }, "geometry": { "type": "Point", "coordinates": [ -103.76972403793836, 20.839149603004891 ] } },
{ "type": "Feature", "properties": { "id": 22, "grupo": 6, "lat": 20.927046, "lon": -103.859877, "google_maps": "https://maps.google.com/?q=20.927046,-103.859877&t=k", "clase": "" }, "geometry": { "type": "Point", "coordinates": [ -103.859876798628392, 20.927045950727731 ] } },
{ "type": "Feature", "properties": { "id": 23, "grupo": 7, "lat": 20.853364, "lon": -103.773933, "google_maps": "https://maps.google.com/?q=20.853364,-103.773933&t=k", "clase": "" }, "geometry": { "type": "Point", "coordinates": [ -103.773933404187261, 20.8533635652588 ] } },
{ "type": "Feature", "properties": { "id": 24, "grupo": 7, "lat": 20.845736, "lon": -103.743626, "google_maps": "https://maps.google.com/?q=20.845736,-103.743626&t=k", "clase": "" }, "geometry": { "type": "Point", "coordinates": [ -103.743626243941435, 20.845735813381172 ] } },
{ "type": "Feature", "properties": { "id": 25, "grupo": 7, "lat": 20.909464, "lon": -103.865106, "google_maps": "https://maps.google.com/?q=20.909464,-103.865106&t=k", "clase": "" }, "geometry": { "type": "Point", "coordinates": [ -103.865105579989944, 20.909463700572022 ] } },
{ "type": "Feature", "properties": { "id": 26, "grupo": 7, "lat": 20.880736, "lon": -103.73651, "google_maps": "https://maps.google.com/?q=20.880736,-103.73651&t=k", "clase": "" }, "geometry": { "type": "Point", "coordinates": [ -103.736510415331722, 20.880735933542034 ] } },
{ "type": "Feature", "properties": { "id": 27, "grupo": 8, "lat": 20.862021, "lon": -103.746855, "google_maps": "https://maps.google.com/?q=20.862021,-103.746855&t=k", "clase": "" }, "geometry": { "type": "Point", "coordinates": [ -103.746854977969718, 20.86202099211447 ] } },
{ "type": "Feature", "properties": { "id": 28, "grupo": 8, "lat": 20.873748, "lon": -103.696198, "google_maps": "https://maps.google.com/?q=20.873748,-103.696198&t=k", "clase": "" }, "geometry": { "type": "Point", "coordinates": [ -103.696198044546563, 20.873748174777958 ] } },
{ "type": "Feature", "properties": { "id": 29, "grupo": 8, "lat": 20.800313, "lon": -103.733915, "google_maps": "https://maps.google.com/?q=20.800313,-103.733915&t=k", "clase": "" }, "geometry": { "type": "Point", "coordinates": [ -103.733914975310341, 20.800312728374809 ] } },
{ "type": "Feature", "properties": { "id": 30, "grupo": 8, "lat": 20.902623, "lon": -103.882751, "google_maps": "https://maps.google.com/?q=20.902623,-103.882751&t=k", "clase": "" }, "geometry": { "type": "Point", "coordinates": [ -103.88275130578981, 20.902623483068233 ] } },
{ "type": "Feature", "properties": { "id": 31, "grupo": 9, "lat": 20.855822, "lon": -103.776605, "google_maps": "https://maps.google.com/?q=20.855822,-103.776605&t=k", "clase": "" }, "geometry": { "type": "Point", "coordinates": [ -103.776604591016095, 20.855821922885536 ] } },
{ "type": "Feature", "properties": { "id": 32, "grupo": 9, "lat": 20.890538, "lon": -103.87217, "google_maps": "https://maps.google.com/?q=20.890538,-103.87217&t=k", "clase": "" }, "geometry": { "type": "Point", "coordinates": [ -103.872169673158368, 20.890538158735577 ] } },
{ "type": "Feature", "properties": { "id": 33, "grupo": 9, "lat": 20.841575, "lon": -103.780372, "google_maps": "https://maps.google.com/?q=20.841575,-103.780372&t=k", "clase": "" }, "geometry": { "type": "Point", "coordinates": [ -103.78037166515422, 20.841574657174601 ] } },
{ "type": "Feature", "properties": { "id": 34, "grupo": 9, "lat": 20.900136, "lon": -103.834891, "google_maps": "https://maps.google.com/?q=20.900136,-103.834891&t=k", "clase": "" }, "geometry": { "type": "Point", "coordinates": [ -103.834891220407158, 20.900135612284199 ] } },
{ "type": "Feature", "properties": { "id": 35, "grupo": 10, "lat": 20.887447, "lon": -103.777406, "google_maps": "https://maps.google.com/?q=20.887447,-103.777406&t=k", "clase": "" }, "geometry": { "type": "Point", "coordinates": [ -103.777405995340217, 20.887447485281417 ] } },
{ "type": "Feature", "properties": { "id": 36, "grupo": 10, "lat": 20.89804, "lon": -103.859039, "google_maps": "https://maps.google.com/?q=20.89804,-103.859039&t=k", "clase": "" }, "geometry": { "type": "Point", "coordinates": [ -103.859038526021834, 20.898039935495422 ] } },
{ "type": "Feature", "properties": { "id": 37, "grupo": 10, "lat": 20.883708, "lon": -103.823867, "google_maps": "https://maps.google.com/?q=20.883708,-103.823867&t=k", "clase": "" }, "geometry": { "type": "Point", "coordinates": [ -103.823866872842274, 20.883707950438726 ] } },
{ "type": "Feature", "properties": { "id": 38, "grupo": 10, "lat": 20.834005, "lon": -103.708937, "google_maps": "https://maps.google.com/?q=20.834005,-103.708937&t=k", "clase": "" }, "geometry": { "type": "Point", "coordinates": [ -103.708936859490805, 20.834004505324295 ] } },
{ "type": "Feature", "properties": { "id": 39, "grupo": 11, "lat": 20.843288, "lon": -103.845132, "google_maps": "https://maps.google.com/?q=20.843288,-103.845132&t=k", "clase": "" }, "geometry": { "type": "Point", "coordinates": [ -103.845132098972854, 20.843288371429608 ] } },
{ "type": "Feature", "properties": { "id": 40, "grupo": 11, "lat": 20.791014, "lon": -103.797687, "google_maps": "https://maps.google.com/?q=20.791014,-103.797687&t=k", "clase": "" }, "geometry": { "type": "Point", "coordinates": [ -103.797686841881372, 20.791014398006208 ] } },
{ "type": "Feature", "properties": { "id": 41, "grupo": 11, "lat": 20.815235, "lon": -103.748395, "google_maps": "https://maps.google.com/?q=20.815235,-103.748395&t=k", "clase": "" }, "geometry": { "type": "Point", "coordinates": [ -103.748395213784335, 20.815235117216833 ] } },
{ "type": "Feature", "properties": { "id": 42, "grupo": 11, "lat": 20.814027, "lon": -103.820085, "google_maps": "https://maps.google.com/?q=20.814027,-103.820085&t=k", "clase": "" }, "geometry": { "type": "Point", "coordinates": [ -103.820084515829521, 20.814026915557118 ] } },
{ "type": "Feature", "properties": { "id": 43, "grupo": 12, "lat": 20.859231, "lon": -103.736017, "google_maps": "https://maps.google.com/?q=20.859231,-103.736017&t=k", "clase": "" }, "geometry": { "type": "Point", "coordinates": [ -103.736017393405277, 20.859231050470662 ] } },
{ "type": "Feature", "properties": { "id": 44, "grupo": 12, "lat": 20.832751, "lon": -103.698473, "google_maps": "https://maps.google.com/?q=20.832751,-103.698473&t=k", "clase": "" }, "geometry": { "type": "Point", "coordinates": [ -103.698473241853307, 20.832750906775971 ] } },
{ "type": "Feature", "properties": { "id": 45, "grupo": 12, "lat": 20.925744, "lon": -103.867868, "google_maps": "https://maps.google.com/?q=20.925744,-103.867868&t=k", "clase": "" }, "geometry": { "type": "Point", "coordinates": [ -103.867867766529358, 20.925743971309601 ] } },
{ "type": "Feature", "properties": { "id": 46, "grupo": 12, "lat": 20.844137, "lon": -103.687035, "google_maps": "https://maps.google.com/?q=20.844137,-103.687035&t=k", "clase": "" }, "geometry": { "type": "Point", "coordinates": [ -103.687035376624593, 20.844136864213791 ] } }
]
}
